ONEWEB-0261             
1 48979U 21060N   25303.16842746  .00000043  00000+0  79523-4 0  9993
2 48979  87.8982 274.6165 0002016  97.1908 262.9452 13.16592857209395
ONEWEB-0262             
1 48980U 21060P   25302.92063949  .00000104  00000+0  23956-3 0  9994
2 48980  87.8992 274.6350 0002244  86.0388 274.0999 13.16595601209329
ONEWEB-0263             
1 48981U 21060Q   25303.18030315 -.00000008  00000+0 -55127-4 0  9996
2 48981  87.8982 274.6008 0002120  95.2904 264.8469 13.16595041209325
ONEWEB-0264             
1 48982U 21060R   25302.98951000  .00000015  00000+0  54062-5 0  9991
2 48982  87.8980 274.6431 0001798  93.7103 266.4234 13.16591322209302
ONEWEB-0266             
1 48984U 21060T   25303.31488364  .00000129  00000+0  30442-3 0  9999
2 48984  87.8993 274.5600 0002062  81.4038 278.7326 13.16595119209330
ONEWEB-0267             
1 48985U 21060U   25303.17396540 -.00000015  00000+0 -73706-4 0  9995
2 48985  87.8990 274.5889 0001921  92.3892 267.7459 13.16592702209328
ONEWEB-0268             
1 48986U 21060V   25303.29427947  .00000156  00000+0  37313-3 0  9992
2 48986  87.8992 274.5718 0001830  88.3260 271.8081 13.16597649209608
ONEWEB-0269             
1 48987U 21060W   25303.19929284  .00000064  00000+0  13486-3 0  9996
2 48987  87.8978 274.6173 0001744  83.1645 276.9684 13.16592335209368
ONEWEB-0270             
1 48988U 21060X   25303.21670891  .00000196  00000+0  47993-3 0  9993
2 48988  87.8990 274.5894 0002283  92.5421 267.5971 13.16592504209405
ONEWEB-0271             
1 48989U 21060Y   25303.20403970  .00000176  00000+0  42755-3 0  9994
2 48989  87.8997 274.5773 0002001  93.4611 266.6749 13.16595905209409
ONEWEB-0272             
1 48990U 21060Z   25303.30220413  .00000132  00000+0  31289-3 0  9998
2 48990  87.8982 274.5804 0001824  93.4004 266.7335 13.16595880209367
ONEWEB-0273             
1 48991U 21060AA  25303.17238310 -.00000043  00000+0 -14494-3 0  9991
2 48991  87.8991 274.5980 0002040  88.5622 271.5743 13.16592975209320
ONEWEB-0274             
1 48992U 21060AB  25303.19771557  .00000061  00000+0  12525-3 0  9990
2 48992  87.8979 274.6200 0001565  91.7600 268.3710 13.16595520209367
ONEWEB-0275             
1 48993U 21060AC  25303.18663216  .00000064  00000+0  13335-3 0  9995
2 48993  87.8988 274.5886 0001856  88.0110 272.1234 13.16595867209295
ONEWEB-0276             
1 48994U 21060AD  25303.29587790  .00000081  00000+0  17862-3 0  9998
2 48994  87.8992 274.5656 0002095  86.0120 274.1251 13.16594379209323
ONEWEB-0277             
1 48995U 21060AE  25303.30858308  .00000140  00000+0  33235-3 0  9995
2 48995  87.8981 274.5918 0001841  93.2429 266.8913 13.16593778209317
ONEWEB-0278             
1 48996U 21060AF  25302.91904963  .00000100  00000+0  22873-3 0  9993
2 48996  87.8991 274.6376 0002007  80.5113 279.6245 13.16591884209396
