[{"OBJECT_NAME":"ONEWEB-0261","OBJECT_ID":"2021-060N","EPOCH":"2025-10-30T04:02:32.132544","MEAN_MOTION":13.16592857,"ECCENTRICITY":0.00020165,"INCLINATION":87.8982,"RA_OF_ASC_NODE":274.6165,"ARG_OF_PERICENTER":97.1908,"MEAN_ANOMALY":262.9452,"EPHEMERIS_TYPE":0,"CLASSIFICATION_TYPE":"U","NORAD_CAT_ID":48979,"ELEMENT_SET_NO":999,"REV_AT_EPOCH":20939,"BSTAR":7.9522595e-5,"MEAN_MOTION_DOT":4.3e-7,"MEAN_MOTION_DDOT":0},{"OBJECT_NAME":"ONEWEB-0262","OBJECT_ID":"2021-060P","EPOCH":"2025-10-29T22:05:43.251936","MEAN_MOTION":13.16595601,"ECCENTRICITY":0.00022448,"INCLINATION":87.8992,"RA_OF_ASC_NODE":274.635,"ARG_OF_PERICENTER":86.0388,"MEAN_ANOMALY":274.0999,"EPHEMERIS_TYPE":0,"CLASSIFICATION_TYPE":"U","NORAD_CAT_ID":48980,"ELEMENT_SET_NO":999,"REV_AT_EPOCH":20932,"BSTAR":0.00023955872,"MEAN_MOTION_DOT":1.04e-6,"MEAN_MOTION_DDOT":0},{"OBJECT_NAME":"ONEWEB-0263","OBJECT_ID":"2021-060Q","EPOCH":"2025-10-30T04:19:38.192160","MEAN_MOTION":13.16595041,"ECCENTRICITY":0.00021205,"INCLINATION":87.8982,"RA_OF_ASC_NODE":274.6008,"ARG_OF_PERICENTER":95.2904,"MEAN_ANOMALY":264.8469,"EPHEMERIS_TYPE":0,"CLASSIFICATION_TYPE":"U","NORAD_CAT_ID":48981,"ELEMENT_SET_NO":999,"REV_AT_EPOCH":20932,"BSTAR":-5.5127023e-5,"MEAN_MOTION_DOT":-8.0e-8,"MEAN_MOTION_DDOT":0},{"OBJECT_NAME":"ONEWEB-0264","OBJECT_ID":"2021-060R","EPOCH":"2025-10-29T23:44:53.664000","MEAN_MOTION":13.16591322,"ECCENTRICITY":0.00017989,"INCLINATION":87.898,"RA_OF_ASC_NODE":274.6431,"ARG_OF_PERICENTER":93.7103,"MEAN_ANOMALY":266.4234,"EPHEMERIS_TYPE":0,"CLASSIFICATION_TYPE":"U","NORAD_CAT_ID":48982,"ELEMENT_SET_NO":999,"REV_AT_EPOCH":20930,"BSTAR":5.406152e-6,"MEAN_MOTION_DOT":1.5e-7,"MEAN_MOTION_DDOT":0},{"OBJECT_NAME":"ONEWEB-0266","OBJECT_ID":"2021-060T","EPOCH":"2025-10-30T07:33:25.946496","MEAN_MOTION":13.16595119,"ECCENTRICITY":0.00020621,"INCLINATION":87.8993,"RA_OF_ASC_NODE":274.56,"ARG_OF_PERICENTER":81.4038,"MEAN_ANOMALY":278.7326,"EPHEMERIS_TYPE":0,"CLASSIFICATION_TYPE":"U","NORAD_CAT_ID":48984,"ELEMENT_SET_NO":999,"REV_AT_EPOCH":20933,"BSTAR":0.0003044228,"MEAN_MOTION_DOT":1.29e-6,"MEAN_MOTION_DDOT":0},{"OBJECT_NAME":"ONEWEB-0267","OBJECT_ID":"2021-060U","EPOCH":"2025-10-30T04:10:30.610560","MEAN_MOTION":13.16592702,"ECCENTRICITY":0.0001921,"INCLINATION":87.899,"RA_OF_ASC_NODE":274.5889,"ARG_OF_PERICENTER":92.3892,"MEAN_ANOMALY":267.7459,"EPHEMERIS_TYPE":0,"CLASSIFICATION_TYPE":"U","NORAD_CAT_ID":48985,"ELEMENT_SET_NO":999,"REV_AT_EPOCH":20932,"BSTAR":-7.370563e-5,"MEAN_MOTION_DOT":-1.5e-7,"MEAN_MOTION_DDOT":0},{"OBJECT_NAME":"ONEWEB-0268","OBJECT_ID":"2021-060V","EPOCH":"2025-10-30T07:03:45.746208","MEAN_MOTION":13.16597649,"ECCENTRICITY":0.00018304,"INCLINATION":87.8992,"RA_OF_ASC_NODE":274.5718,"ARG_OF_PERICENTER":88.326,"MEAN_ANOMALY":271.8081,"EPHEMERIS_TYPE":0,"CLASSIFICATION_TYPE":"U","NORAD_CAT_ID":48986,"ELEMENT_SET_NO":999,"REV_AT_EPOCH":20960,"BSTAR":0.00037313281,"MEAN_MOTION_DOT":1.56e-6,"MEAN_MOTION_DDOT":0},{"OBJECT_NAME":"ONEWEB-0269","OBJECT_ID":"2021-060W","EPOCH":"2025-10-30T04:46:58.901376","MEAN_MOTION":13.16592335,"ECCENTRICITY":0.00017446,"INCLINATION":87.8978,"RA_OF_ASC_NODE":274.6173,"ARG_OF_PERICENTER":83.1645,"MEAN_ANOMALY":276.9684,"EPHEMERIS_TYPE":0,"CLASSIFICATION_TYPE":"U","NORAD_CAT_ID":48987,"ELEMENT_SET_NO":999,"REV_AT_EPOCH":20936,"BSTAR":0.00013485785,"MEAN_MOTION_DOT":6.4e-7,"MEAN_MOTION_DDOT":0},{"OBJECT_NAME":"ONEWEB-0270","OBJECT_ID":"2021-060X","EPOCH":"2025-10-30T05:12:03.649824","MEAN_MOTION":13.16592504,"ECCENTRICITY":0.00022833,"INCLINATION":87.899,"RA_OF_ASC_NODE":274.5894,"ARG_OF_PERICENTER":92.5421,"MEAN_ANOMALY":267.5971,"EPHEMERIS_TYPE":0,"CLASSIFICATION_TYPE":"U","NORAD_CAT_ID":48988,"ELEMENT_SET_NO":999,"REV_AT_EPOCH":20940,"BSTAR":0.00047992854,"MEAN_MOTION_DOT":1.96e-6,"MEAN_MOTION_DDOT":0},{"OBJECT_NAME":"ONEWEB-0271","OBJECT_ID":"2021-060Y","EPOCH":"2025-10-30T04:53:49.030080","MEAN_MOTION":13.16595905,"ECCENTRICITY":0.00020018,"INCLINATION":87.8997,"RA_OF_ASC_NODE":274.5773,"ARG_OF_PERICENTER":93.4611,"MEAN_ANOMALY":266.6749,"EPHEMERIS_TYPE":0,"CLASSIFICATION_TYPE":"U","NORAD_CAT_ID":48989,"ELEMENT_SET_NO":999,"REV_AT_EPOCH":20940,"BSTAR":0.00042754545,"MEAN_MOTION_DOT":1.76e-6,"MEAN_MOTION_DDOT":0},{"OBJECT_NAME":"ONEWEB-0272","OBJECT_ID":"2021-060Z","EPOCH":"2025-10-30T07:15:10.436832","MEAN_MOTION":13.1659588,"ECCENTRICITY":0.0001824,"INCLINATION":87.8982,"RA_OF_ASC_NODE":274.5804,"ARG_OF_PERICENTER":93.4004,"MEAN_ANOMALY":266.7335,"EPHEMERIS_TYPE":0,"CLASSIFICATION_TYPE":"U","NORAD_CAT_ID":48990,"ELEMENT_SET_NO":999,"REV_AT_EPOCH":20936,"BSTAR":0.00031289028,"MEAN_MOTION_DOT":1.32e-6,"MEAN_MOTION_DDOT":0},{"OBJECT_NAME":"ONEWEB-0273","OBJECT_ID":"2021-060AA","EPOCH":"2025-10-30T04:08:13.899840","MEAN_MOTION":13.16592975,"ECCENTRICITY":0.00020402,"INCLINATION":87.8991,"RA_OF_ASC_NODE":274.598,"ARG_OF_PERICENTER":88.5622,"MEAN_ANOMALY":271.5743,"EPHEMERIS_TYPE":0,"CLASSIFICATION_TYPE":"U","NORAD_CAT_ID":48991,"ELEMENT_SET_NO":999,"REV_AT_EPOCH":20932,"BSTAR":-0.00014493822,"MEAN_MOTION_DOT":-4.3e-7,"MEAN_MOTION_DDOT":0},{"OBJECT_NAME":"ONEWEB-0274","OBJECT_ID":"2021-060AB","EPOCH":"2025-10-30T04:44:42.625248","MEAN_MOTION":13.1659552,"ECCENTRICITY":0.00015657,"INCLINATION":87.8979,"RA_OF_ASC_NODE":274.62,"ARG_OF_PERICENTER":91.76,"MEAN_ANOMALY":268.371,"EPHEMERIS_TYPE":0,"CLASSIFICATION_TYPE":"U","NORAD_CAT_ID":48992,"ELEMENT_SET_NO":999,"REV_AT_EPOCH":20936,"BSTAR":0.00012525315,"MEAN_MOTION_DOT":6.1e-7,"MEAN_MOTION_DDOT":0},{"OBJECT_NAME":"ONEWEB-0275","OBJECT_ID":"2021-060AC","EPOCH":"2025-10-30T04:28:45.018624","MEAN_MOTION":13.16595867,"ECCENTRICITY":0.00018566,"INCLINATION":87.8988,"RA_OF_ASC_NODE":274.5886,"ARG_OF_PERICENTER":88.011,"MEAN_ANOMALY":272.1234,"EPHEMERIS_TYPE":0,"CLASSIFICATION_TYPE":"U","NORAD_CAT_ID":48993,"ELEMENT_SET_NO":999,"REV_AT_EPOCH":20929,"BSTAR":0.00013334835,"MEAN_MOTION_DOT":6.4e-7,"MEAN_MOTION_DDOT":0},{"OBJECT_NAME":"ONEWEB-0276","OBJECT_ID":"2021-060AD","EPOCH":"2025-10-30T07:06:03.850560","MEAN_MOTION":13.16594379,"ECCENTRICITY":0.00020959,"INCLINATION":87.8992,"RA_OF_ASC_NODE":274.5656,"ARG_OF_PERICENTER":86.012,"MEAN_ANOMALY":274.1251,"EPHEMERIS_TYPE":0,"CLASSIFICATION_TYPE":"U","NORAD_CAT_ID":48994,"ELEMENT_SET_NO":999,"REV_AT_EPOCH":20932,"BSTAR":0.00017861559,"MEAN_MOTION_DOT":8.1e-7,"MEAN_MOTION_DDOT":0},{"OBJECT_NAME":"ONEWEB-0277","OBJECT_ID":"2021-060AE","EPOCH":"2025-10-30T07:24:21.578112","MEAN_MOTION":13.16593778,"ECCENTRICITY":0.00018412,"INCLINATION":87.8981,"RA_OF_ASC_NODE":274.5918,"ARG_OF_PERICENTER":93.2429,"MEAN_ANOMALY":266.8913,"EPHEMERIS_TYPE":0,"CLASSIFICATION_TYPE":"U","NORAD_CAT_ID":48995,"ELEMENT_SET_NO":999,"REV_AT_EPOCH":20931,"BSTAR":0.00033235048,"MEAN_MOTION_DOT":1.4e-6,"MEAN_MOTION_DDOT":0},{"OBJECT_NAME":"ONEWEB-0278","OBJECT_ID":"2021-060AF","EPOCH":"2025-10-29T22:03:25.888032","MEAN_MOTION":13.16591884,"ECCENTRICITY":0.00020074,"INCLINATION":87.8991,"RA_OF_ASC_NODE":274.6376,"ARG_OF_PERICENTER":80.5113,"MEAN_ANOMALY":279.6245,"EPHEMERIS_TYPE":0,"CLASSIFICATION_TYPE":"U","NORAD_CAT_ID":48996,"ELEMENT_SET_NO":999,"REV_AT_EPOCH":20939,"BSTAR":0.00022873108,"MEAN_MOTION_DOT":1.0e-6,"MEAN_MOTION_DDOT":0}]
